#dP2022  9 13  0  0  0.00000000      96 __u+U ITR00 EXT  IAC
## 2227 172800.00000000   900.00000000 59835 0.0000000000000
+  116   C06C07C08C09C10C11C12C13C14C16C19C20C21C22C23C24C25
+        C26C27C28C29C30C32C33C34C35C36C37C38C39C40C41C42C43
+        C44C45C46E01E02E03E04E05E07E08E09E10E11E12E13E14E15
+        E18E19E21E24E25E26E27E30E31E33E34E36G01G02G03G04G05
+        G06G07G08G09G10G11G12G13G14G15G16G17G18G19G20G21G22
+        G24G25G26G27G28G29G30G31G32J02J03R01R02R03R04R05R07
+        R08R09R11R12R13R14R15R17R18R19R20R21R24R25  0  0  0
++         0  0  0  0  0  0  0  0  0  0  0  0  0  0  0  0  0
++         0  0  0  0  0  0  0  0  0  0  0  0  0  0  0  0  0
++         0  0  0  0  0  0  0  0  0  0  0  0  0  0  0  0  0
++         0  0  0  0  0  0  0  0  0  0  0  0  0  0  0  0  0
++         0  0  0  0  0  0  0  0  0  0  0  0  0  0  0  0  0
++         0  0  0  0  0  0  0  0  0  0  0  0  0  0  0  0  0
++         0  0  0  0  0  0  0  0  0  0  0  0  0  0  0  0  0
%c M  cc GPS ccc cccc cccc cccc cccc ccccc ccccc ccccc ccccc
%c cc cc ccc ccc cccc cccc cccc cccc ccccc ccccc ccccc ccccc
%f  0.0000000  0.000000000  0.00000000000  0.000000000000000
%f  0.0000000  0.000000000  0.00000000000  0.000000000000000
%i    0    0    0    0      0      0      0      0         0
%i    0    0    0    0      0      0      0      0         0
/* IAC                                ULTRA-RAPID PREDICTION
/* S/V CLOCKS ARE ALIGNED TO GNSS TIME                      
/* G:C1WC2W R:C1PC2P E:C1XC5X C:C2IC6I J:C1CC2S             
/* PCV:IGS14_2218 OL/AL:FES2004  NONE     YN ORB:CoN CLK:CoN
*  2022 09 13 17 45  0.00000000
PC06  -9582.735488  40355.886463  -6831.625883    830.656044
PC07  -5622.200441  27359.823774  31656.151142   -136.530776
PC08 -19846.425015  26189.188882 -26542.014107    470.207043
PC09  -4364.746921  41567.343091   3126.302619   -864.805721
PC10   2654.196175  30110.971415  29857.049517     97.134108
PC11  -1585.965219  27864.012605   1099.706640   -411.082805
PC12 -11554.344912  18947.168569  16971.163748   -519.452299
PC13 -11835.434849  26999.914275 -30146.684990     79.551089
PC14   4228.705716  18606.170660 -20371.352853    650.322652
PC16 -11466.796120  39002.331690 -10443.146813    137.936910
PC19 -13885.961568 -19403.333907  14473.759796   -646.864990
PC20   4347.259769 -15507.761032  22790.795990    584.702975
PC21 -21248.612722   1970.913310 -17964.108144   -388.567525
PC22 -24910.054450 -12270.498256  -2644.950734   -606.806035
PC23  20119.512427   4148.413154  18897.880783    -66.888956
PC24 -16383.357233  19240.682397  11863.423742   -126.651424
PC25   4163.215097  16216.175394  22324.538904   -678.751257
PC26 -24959.085110  11939.766125  -3792.155050     -7.049449
PC27  14888.952658 -10213.826839 -21298.858830     20.341159
PC28  14644.075132  10426.548007 -21344.436056     12.555951
PC29  -6467.947725 -25820.529577   8364.484234     13.052759
PC30   6149.983442 -25421.439867  -9756.728406    502.897236
PC32  21313.846669  -2063.822402  17905.784775   -805.331955
PC33  13930.069980  19346.397213 -14521.039947   -653.992243
PC34  -5503.402105  25917.251672   8727.061068   -314.362593
PC35 -14744.154826 -11413.843899  20761.847754    457.283407
PC36  -3180.290572 -16559.134948 -22205.062247   -191.499812
PC37  25370.828722 -10466.692465   5005.288167   -184.527490
PC38 -25638.761676  27351.473185 -19461.355660     23.986724
PC39 -12516.011438  36798.735923 -16073.592552     -0.445273
PC40  -9397.915741  21346.161204  35137.055339     -4.106940
PC41  24866.696960  12487.729638   2160.068284    -75.538515
PC42  -5515.027673  14974.804630 -22858.072048   -289.011546
PC43   5982.995956  26149.097384  -7674.114503     14.033480
PC44 -14682.197723  10500.428695  21264.114611     48.997137
PC45 -20323.538679  -3745.037157 -18755.681138    860.043041
PC46  14930.271763 -19441.280143 -13293.439911   -539.475154
PE01 -27800.282251   5538.985596   8537.116568   -527.386190
PE02  27719.095729  -5643.195871  -8687.800812    324.485380
PE03  16388.209003  -5432.474093  24038.043976   -599.509536
PE04  -2754.077812  22389.522234 -19163.554687  -1114.720693
PE05  20673.940492  15080.180840  14878.363361   -144.338203
PE07 -12875.257210 -26502.319114   2782.653324   -705.064260
PE08   2522.129481 -22387.816743  19189.222174   -598.179375
PE09  12900.008564  26492.131571  -2897.614599   -657.337263
PE10  -6160.878141  26346.578732 -12031.679953   -476.596156
PE11   2321.670860  21782.853966 -19919.236439   2236.364119
PE12 -13141.541140  26369.902912  -2820.936446   -167.347657
PE13  -1659.209995 -22243.397214  19455.682699    430.568905
PE14  22435.976919   6410.393673 -22414.205283  -1721.213782
PE15  13220.277297 -26351.741757   2608.206737    720.632669
PE18 -15257.979269   2459.004356  18230.073753   -980.363275
PE19 -17514.377130   2574.950906 -23721.628959  -4540.675238
PE21 -27513.792775  -6292.532720  -8914.534415   -757.529867
PE24  10273.357699  15782.367294  22827.934620   -834.962219
PE25  27375.429248   6492.344922   9208.741142   -587.569998
PE26 -16027.402567  -4292.760061  24513.203847  -1608.990357
PE27 -11501.544957 -15438.670614 -22475.344344   -391.257357
PE30  12097.621001 -15191.335870 -22336.440445   -833.923316
PE31 -11131.395003  15422.740604  22695.481845   -503.491215
PE33 -20215.462613  14891.564798  15678.568462   -453.688907
PE34  20178.330628 -15065.942655 -15551.662763     -4.337299
PE36  15425.308073   5135.481783 -24737.074732   -430.962585
PG01 -13562.320009  22382.453143  -3581.159776    284.546583
PG02  16373.552130 -20200.477301  -5247.318526   -646.155712
PG03 -12309.610811  12462.971514 -20056.023619   -350.359179
PG04  -4310.400978  20119.792132 -16738.399465   -119.239703
PG05  22718.730271  -7009.727993  11799.493088    -96.542506
PG06  14579.705513   4288.649580 -21730.847216    459.637938
PG07   -842.471731  21048.124565  16292.041224    307.828239
PG08 -10558.273546  11985.278514  21120.496838    -84.481577
PG09   5788.152862  24746.853215  -7725.684033   -296.519211
PG10 -19543.474133 -11530.056762  14202.575495     -3.118153
PG11  19781.627880  -6409.846572 -16504.397740    -16.281432
PG12  13988.952195 -11402.710741 -19718.187991   -277.783787
PG13  14776.447962  -2675.895887  21748.433897    386.846056
PG14  17554.275299  13181.859001  15036.150723   -103.789682
PG15   9440.013574 -13484.276097  20357.837487    -29.298232
PG16 -25909.929001   -286.139592   6565.594313   -524.002682
PG17  12853.600288  22282.303569  -6046.067948    658.771353
PG18    963.083910 -20479.984423  16802.516061     49.705782
PG19  15965.203502  14948.178103 -15487.146247    210.233844
PG20  26387.809383   -668.954195  -1406.638560    486.712354
PG21 -17033.697260  18762.119129   7162.171287    159.479974
PG22 -16543.991375 -12375.650924 -16371.253257    327.221778
PG24  14247.437836 -22088.318830   1223.182241    136.690697
PG25    274.590218 -15500.006644 -21861.885021    371.637517
PG26 -26306.754656  -3460.586545  -3345.756392    228.347877
PG27 -16248.708619  -1298.110778  20833.182446    211.845913
PG28  23253.410397  10094.878782   8001.643119    338.391157
PG29  -3146.157700 -24975.902818  -8382.369302   -551.256891
PG30   8804.832723  13954.358370  20864.329601   -536.931682
PG31 -16161.839941  -3268.023438 -21045.801312   -193.224671
PG32 -15748.354468 -19666.237835  -8562.191091   -232.242348
PJ02 -30669.409030  23136.024747  22402.676640     -4.961708
PJ03 -29057.261610  26876.265813  19634.025478     -1.570632
PR01 -19093.842165 -16787.436930   2005.183485     14.685008
PR02 -18780.698777  -6311.394995 -16069.431874    -22.654608
PR03  -7561.203731   7877.180048 -23014.738383     63.641869
PR04   7733.671190  17247.695578 -17098.275825    157.451858
PR05  18639.791754  17302.240750  -1767.721941     99.570292
PR07   6847.571212  -8523.365928  23079.229220     40.915139
PR08  -7841.255217 -17351.782371  17041.272039    -67.149425
PR09  24019.750931  -5569.505088   6710.620646     76.513790
PR11   4813.276829 -12702.076232 -21578.941868     27.550927
PR12 -14425.940353  -5162.899431 -20366.608663     21.221559
PR13 -23713.595468   4665.264182  -8165.266987    -26.768876
PR14 -19447.322321  12606.957988  10651.294030     24.262205
PR15  -3840.340639  12552.583589  21895.539172     93.729736
PR17  -9614.168940  20090.459503  12486.774069    560.811900
PR18  -3174.817321  24971.834334  -3978.256053     42.244613
PR19   3904.555067  18017.201037 -17638.359285   -203.558620
PR20  10982.966988  -2531.840568 -22880.067640    -78.326074
PR21   9239.670817 -20994.980003 -11121.093123   -333.436631
PR24 -11455.474315   3470.768739  22543.674238    114.393131
PR25   3707.416668 -24802.307448   4711.992804     13.138850
EOF
